{
  "type": "FeatureCollection",
  "features": [
    {
      "type": "Feature",
      "properties": {
        "norad_id": 29740,
        "name": "FENGYUN 1C DEB",
        "group": "fengyun-1c-debris",
        "lat": -22.09238485420837,
        "lon": 13.333471613580617,
        "alt_km": 866.5610387309252,
        "timestamp": "2025-12-10T23:33:13.089373+00:00",
        "meta_object_name": "FENGYUN 1C DEB",
        "meta_object_id": "1999-025AE",
        "meta_epoch": "2025-12-10T00:33:08.583264",
        "meta_mean_motion": 12.0832584,
        "meta_eccentricity": 0.09750732,
        "meta_inclination": 99.0446,
        "meta_ra_of_asc_node": 196.3551,
        "meta_arg_of_pericenter": 204.1383,
        "meta_mean_anomaly": 151.0895,
        "meta_ephemeris_type": 0,
        "meta_classification_type": "U",
        "meta_norad_cat_id": 29740,
        "meta_element_set_no": 999,
        "meta_rev_at_epoch": 82902,
        "meta_bstar": 0.0010996439,
        "meta_mean_motion_dot": 3.97e-06,
        "meta_mean_motion_ddot": 0,
        "tle_line1": "1 29740U 99025AE  25344.02301601  .00000397  00000+0  10996-2 0  9993",
        "tle_line2": "2 29740  99.0446 196.3551 0975073 204.1383 151.0895 12.08325840829021"
      },
      "geometry": {
        "type": "Point",
        "coordinates": [
          13.333471613580617,
          -22.09238485420837
        ]
      }
    },
    {
      "type": "Feature",
      "properties": {
        "norad_id": 29741,
        "name": "FENGYUN 1C DEB",
        "group": "fengyun-1c-debris",
        "lat": 48.279259015118434,
        "lon": 50.25648819295111,
        "alt_km": 1238.7193777772973,
        "timestamp": "2025-12-10T23:33:13.089384+00:00",
        "meta_object_name": "FENGYUN 1C DEB",
        "meta_object_id": "1999-025AF",
        "meta_epoch": "2025-12-10T15:05:12.289344",
        "meta_mean_motion": 12.00922425,
        "meta_eccentricity": 0.10242868,
        "meta_inclination": 99.1746,
        "meta_ra_of_asc_node": 219.5621,
        "meta_arg_of_pericenter": 68.0525,
        "meta_mean_anomaly": 328.1045,
        "meta_ephemeris_type": 0,
        "meta_classification_type": "U",
        "meta_norad_cat_id": 29741,
        "meta_element_set_no": 999,
        "meta_rev_at_epoch": 52158,
        "meta_bstar": 0.0064236917,
        "meta_mean_motion_dot": 2.495e-05,
        "meta_mean_motion_ddot": 0,
        "tle_line1": "1 29741U 99025AF  25344.62861446  .00002495  00000+0  64237-2 0  9996",
        "tle_line2": "2 29741  99.1746 219.5621 1024286  68.0525 328.1045 12.00922425521587"
      },
      "geometry": {
        "type": "Point",
        "coordinates": [
          50.25648819295111,
          48.279259015118434
        ]
      }
    },
    {
      "type": "Feature",
      "properties": {
        "norad_id": 29748,
        "name": "FENGYUN 1C DEB",
        "group": "fengyun-1c-debris",
        "lat": 56.58520056339136,
        "lon": 111.53171811139079,
        "alt_km": 1894.7744433551516,
        "timestamp": "2025-12-10T23:33:13.089394+00:00",
        "meta_object_name": "FENGYUN 1C DEB",
        "meta_object_id": "1999-025AN",
        "meta_epoch": "2025-12-08T18:28:11.177184",
        "meta_mean_motion": 11.89764026,
        "meta_eccentricity": 0.08397796,
        "meta_inclination": 99.8026,
        "meta_ra_of_asc_node": 274.6986,
        "meta_arg_of_pericenter": 16.7533,
        "meta_mean_anomaly": 345.9549,
        "meta_ephemeris_type": 0,
        "meta_classification_type": "U",
        "meta_norad_cat_id": 29748,
        "meta_element_set_no": 999,
        "meta_rev_at_epoch": 78686,
        "meta_bstar": 0.18763308,
        "meta_mean_motion_dot": 0.00036035,
        "meta_mean_motion_ddot": 0,
        "tle_line1": "1 29748U 99025AN  25342.76957381  .00036035  00000+0  18763+0 0  9997",
        "tle_line2": "2 29748  99.8026 274.6986 0839779  16.7533 345.9549 11.89764026786864"
      },
      "geometry": {
        "type": "Point",
        "coordinates": [
          111.53171811139079,
          56.58520056339136
        ]
      }
    },
    {
      "type": "Feature",
      "properties": {
        "norad_id": 29750,
        "name": "FENGYUN 1C DEB",
        "group": "fengyun-1c-debris",
        "lat": -11.798616199985174,
        "lon": 15.992678960640518,
        "alt_km": 845.8429978275472,
        "timestamp": "2025-12-10T23:33:13.089403+00:00",
        "meta_object_name": "FENGYUN 1C DEB",
        "meta_object_id": "1999-025AQ",
        "meta_epoch": "2025-12-10T08:21:18.218592",
        "meta_mean_motion": 14.09640573,
        "meta_eccentricity": 0.00351373,
        "meta_inclination": 98.7548,
        "meta_ra_of_asc_node": 13.5323,
        "meta_arg_of_pericenter": 308.3507,
        "meta_mean_anomaly": 67.6704,
        "meta_ephemeris_type": 0,
        "meta_classification_type": "U",
        "meta_norad_cat_id": 29750,
        "meta_element_set_no": 999,
        "meta_rev_at_epoch": 97040,
        "meta_bstar": 0.00032501527,
        "meta_mean_motion_dot": 5.3e-06,
        "meta_mean_motion_ddot": 0,
        "tle_line1": "1 29750U 99025AQ  25344.34812753  .00000530  00000+0  32502-3 0  9991",
        "tle_line2": "2 29750  98.7548  13.5323 0035137 308.3507  67.6704 14.09640573970407"
      },
      "geometry": {
        "type": "Point",
        "coordinates": [
          15.992678960640518,
          -11.798616199985174
        ]
      }
    },
    {
      "type": "Feature",
      "properties": {
        "norad_id": 29751,
        "name": "FENGYUN 1C DEB",
        "group": "fengyun-1c-debris",
        "lat": 34.668242161036424,
        "lon": 6.938197126536884,
        "alt_km": 831.3925534939508,
        "timestamp": "2025-12-10T23:33:13.089412+00:00",
        "meta_object_name": "FENGYUN 1C DEB",
        "meta_object_id": "1999-025AR",
        "meta_epoch": "2025-12-10T08:18:45.800352",
        "meta_mean_motion": 14.23626354,
        "meta_eccentricity": 0.00898245,
        "meta_inclination": 98.5417,
        "meta_ra_of_asc_node": 12.2878,
        "meta_arg_of_pericenter": 146.1334,
        "meta_mean_anomaly": 237.2902,
        "meta_ephemeris_type": 0,
        "meta_classification_type": "U",
        "meta_norad_cat_id": 29751,
        "meta_element_set_no": 999,
        "meta_rev_at_epoch": 98039,
        "meta_bstar": 0.00023830672,
        "meta_mean_motion_dot": 5.24e-06,
        "meta_mean_motion_ddot": 0,
        "tle_line1": "1 29751U 99025AR  25344.34636343  .00000524  00000+0  23831-3 0  9999",
        "tle_line2": "2 29751  98.5417  12.2878 0089824 146.1334 237.2902 14.23626354980391"
      },
      "geometry": {
        "type": "Point",
        "coordinates": [
          6.938197126536884,
          34.668242161036424
        ]
      }
    },
    {
      "type": "Feature",
      "properties": {
        "norad_id": 29754,
        "name": "FENGYUN 1C DEB",
        "group": "fengyun-1c-debris",
        "lat": -18.04394768738156,
        "lon": -95.2041551261595,
        "alt_km": 815.2868053216534,
        "timestamp": "2025-12-10T23:33:13.089422+00:00",
        "meta_object_name": "FENGYUN 1C DEB",
        "meta_object_id": "1999-025AU",
        "meta_epoch": "2025-12-10T12:45:50.171616",
        "meta_mean_motion": 14.19136065,
        "meta_eccentricity": 0.00358195,
        "meta_inclination": 98.8838,
        "meta_ra_of_asc_node": 87.2659,
        "meta_arg_of_pericenter": 245.6576,
        "meta_mean_anomaly": 177.2702,
        "meta_ephemeris_type": 0,
        "meta_classification_type": "U",
        "meta_norad_cat_id": 29754,
        "meta_element_set_no": 999,
        "meta_rev_at_epoch": 97323,
        "meta_bstar": 0.0015720285,
        "meta_mean_motion_dot": 3.266e-05,
        "meta_mean_motion_ddot": 0,
        "tle_line1": "1 29754U 99025AU  25344.53183069  .00003266  00000+0  15720-2 0  9998",
        "tle_line2": "2 29754  98.8838  87.2659 0035819 245.6576 177.2702 14.19136065973237"
      },
      "geometry": {
        "type": "Point",
        "coordinates": [
          -95.2041551261595,
          -18.04394768738156
        ]
      }
    },
    {
      "type": "Feature",
      "properties": {
        "norad_id": 29758,
        "name": "FENGYUN 1C DEB",
        "group": "fengyun-1c-debris",
        "lat": 20.436602150135272,
        "lon": 97.3018758936067,
        "alt_km": 749.689185423309,
        "timestamp": "2025-12-10T23:33:13.089432+00:00",
        "meta_object_name": "FENGYUN 1C DEB",
        "meta_object_id": "1999-025AY",
        "meta_epoch": "2025-12-10T07:02:34.251936",
        "meta_mean_motion": 14.40923255,
        "meta_eccentricity": 0.0020826,
        "meta_inclination": 98.8548,
        "meta_ra_of_asc_node": 99.9199,
        "meta_arg_of_pericenter": 315.0914,
        "meta_mean_anomaly": 98.8923,
        "meta_ephemeris_type": 0,
        "meta_classification_type": "U",
        "meta_norad_cat_id": 29758,
        "meta_element_set_no": 999,
        "meta_rev_at_epoch": 97636,
        "meta_bstar": 0.0040418,
        "meta_mean_motion_dot": 0.00012981,
        "meta_mean_motion_ddot": 0,
        "tle_line1": "1 29758U 99025AY  25344.29345199  .00012981  00000+0  40418-2 0  9995",
        "tle_line2": "2 29758  98.8548  99.9199 0020826 315.0914  98.8923 14.40923255976367"
      },
      "geometry": {
        "type": "Point",
        "coordinates": [
          97.3018758936067,
          20.436602150135272
        ]
      }
    }
  ]
}